name,brewery_type,city,address,phone,website_url,longitude,latitude
127 Brewing,micro,Jackson,3090 Shirley Dr,5172581346,,-84.43116792,42.28667212
5 Lakes Brewing Co.,brewpub,Dorr,1638 142nd Ave,6163599555,http://www.5lakesbrewing.com,-85.70445518,42.72497157
51st State Brewing Company,brewpub,Kingsford,115 Harding Ave,9068282167,http://www.51ststatebrewingcompany.com,-88.08819,45.808408
734 Brewing Company,micro,Ypsilanti,15 E Cross St,7346496453,,-83.61103475,42.24586784
Aberrant Ales,brewpub,Howell,219 W Grand River Ave,5175188699,http://www.aberrantales.com,-83.93094539,42.60773722
Abner's Restaurant Inc / Northern Michigan Beer,brewpub,Brohman,7528 N Woodbridge (M37),2316892295,,,
Albion Malleable Brewing Company,brewpub,Albion,420 S Superior St,5173432202,http://www.albionmalleable.com,-84.7532755,42.2423188
Alma Brewing Co,brewpub,Alma,208 E Superior St,9894620208,http://www.almabrewing.com,-84.6588719,43.37888808
American Badass Beer,contract,Detroit,1401 Abbott St Corktown,,http://www.americanbadassbeer.com,,
American Brewers Inc,micro,Kalamazoo,3408 Miller Rd,2692171920,http://www.americanbrewers.us,-85.5378194,42.26671998
American Harvest Brewpub At Schoolcraft College,brewpub,Livonia,18600 Haggerty Rd,7344627659,http://www.schoolcraft.edu,-83.42868497,42.419317
Arbor Brewing Co,brewpub,Ann Arbor,114 E Washington St,7342131393,http://www.arborbrewing.com,-83.74822471,42.28041029
Arbor Brewing Co. Microbrewery,micro,Ypsilanti,720 Norris St,7344802739,,-83.6099915,42.250158
Arcadia Brewing Co,micro,Kalamazoo,701 E Michigan Ave,2692760458,http://www.arcadiaales.com,-85.5715368,42.2950789
Arclight Brewing Company,micro,Watervliet,544 N Main St,2693320718,http://www.arclightbrewing.com,-86.25939238,42.19104832
Arvon Brewing Co.,micro,Grandville,3057 Broadway Ave SW,6162240086,http://www.arvonbrewingco.com,-85.7720434,42.909272
Ascension Brewing Company,brewpub,Novi,42000 Grand River Ave,2483082093,http://www.ascension.beer,-83.4609783,42.4783271
Atwater Brewing Co,regional,Detroit,237 Joseph Campau St,3138779205,http://www.atwaterbeer.com,-83.072904,42.4190883
Atwater Grand Rapids,brewpub,Grand Rapids,201 Michigan St NW,6166493020,,-85.672454,42.970463
Atwater In the Park Biergarten and Tap House,brewpub,Grosse Pointe Park,1175 Lakepointe St,3133445104,http://www.atwaterbeer.com,-82.9399103,42.3814617
Austin Brothers' Beer Company,brewpub,Alpena,821 W Miller St,9893402300,http://www.austinbrosbeerco.com,-83.43583578,45.07296998
Axle Brewing Company,micro,Ferndale,567 Livernois St,2486137002,http://www.axlebrewing.com,-83.1428144,42.4508021
B.O.B's Brewery,brewpub,Grand Rapids,20 Monroe Ave NW,6163562000,http://thebobsbrewery.thebob.com,-85.67248446,42.9638257
BAD Brewing Co,micro,Mason,440 S Jefferson St,5176767664,http://www.badbrewing.com,-84.4433383,42.5786176
Baffin Brewing Co,micro,Saint Clair Shores,25113 Jefferson Ave,5862187990,http://baffinbrewing.com,-82.888964,42.472227
Bam Entertainment Center,brewpub,Holland,478 E 16th St,6163927086,http://www.gobamgo.com,-86.08555156,42.7812873
Barn Brewers,brewpub,Lawton,114 N Main St,2692990482,http://www.barnbrewersbrewery.com,-85.84966443,42.16834814
Barrel and Beam,micro,Marquette,260 Northwoods RD,9062732559,http://www.barrelandbeam.com,-87.4722168,46.54578
Bastone Brewery,brewpub,Royal Oak,419 S Main St,2485446250,http://www.bastone.net/br/bastone-brewery,-83.1440578,42.4836283
Batch Brewing Co,brewpub,Detroit,1400 Porter St,3133388008,http://www.BatchBrewingCompany.com,-83.088689,42.3184806
Beards Brewery,brewpub,Petoskey,215 E Lake St,2317532221,http://www.beardsbrewery.com,-84.95425838,45.37533801
Beards Brewery Production Facility,micro,Charlevoix,6328 Ferry Ave,,,-85.249116,45.304738
Beer Church Brewing Company,contract,New Buffalo,24 S Whittaker St,2192413876,http://www.beerchurchbrewing.com,-86.74311848,41.79322148
Belding Brewing Company,planning,Belding,,6163086285,,,
"Bell's Brewery, Inc",regional,Galesburg,8938 Krum Ave,2693822338,http://www.bellsbeer.com,,
Bell's Eccentric Cafe,brewpub,Kalamazoo,355 E Kalamazoo Ave,2693822332,http://www.bellsbeer.com,-85.57887292,42.29491555
Bella Casa Di Vino,brewpub,Saint Clair,201 N Riverside Ave,8103261212,http://www.suescoffeehouse.com,-82.48591,42.823895
Bier Distillery,micro,Comstock Park,5295 West River Dr NE Ste 100,6168889746,http://bierdistillery.com,,
Biercamp,brewpub,Ann Arbor,1643 S State St,7349952437,http://www.bier-camp.com,-83.740111,42.2586786
Biere De Mac Brew Works,micro,Mackinaw City,14277 N Mackinaw Hwy,2314277007,http://www.bieredemac.com,,
Big Boiler Brewing,brewpub,Lowell,318 E Main St,6169873155,http://bigboilerbrewing.com,-85.33655351,42.93462931
Big Cat Brewing Company,brewpub,Cedar,8699 S Good Harbor Trl,2312282282,http://www.bigcatbrewingco.com,-85.79311511,44.85319287
Big Hart Brewing Company,brewpub,Hart,4086 W Polk Rd,2313018226,http://www.bighartbrewing.com,,
Big Lake Brewing,micro,Holland,13 W 7th St,6167968888,http://www.biglakebrewing.com,-86.10791587,42.79149405
Big Lake Brewing Production Facility,micro,Holland,166 E 19th St,,,-86.09988824,42.78029471
Big Rock Chop House & Brewery,contract,Birmingham,245 S Eton St,2486477774,http://www.bigrockchophouse.com,-83.19603911,42.54693868
Bilbo's Pizza and Brewery,brewpub,Kalamazoo,3307 Stadium Dr,2693825544,http://www.bilbospizza.com,-85.63122494,42.27160225
Bitter Old Fecker Rustic Ales,micro,Chelsea,12855 E Old US Hwy 12,7344445201,,-83.98452281,42.2995379
Black Fire Winery,micro,Tecumseh,1261 E Munger Rd,5174249232,,,
Black Lotus Brewing Co,brewpub,Clawson,1 E 14 Mile Rd,2485771878,http://WWW.BLACKLOTUSBEER.COM,-83.141428,42.533563
Blackrocks Brewery,micro,Marquette,424 N 3rd St,9062731333,http://www.blackrocksbrewery.com,-87.39462133,46.5464589
Blackrocks Brewery - Production Facility,micro,Marquette,950 W Washington St,9062731333,http://www.blackrocksbrewery.com,-87.41368794,46.54594024
Block Brewing Company,brewpub,Howell,1140 S Michigan Ave,,http://www.blockbrewingcompany.com,-83.931806,42.603858
Blue Cow Cafe/Big Rapids Brewing Co,brewpub,Big Rapids,119 N Michigan Ave,2317960100,http://www.bluecowcafe.com,-85.48211793,43.69871439
Blue Pike Cantina,brewpub,Marine City,152 S Water St,8107654200,,-82.49085669,42.71829576
Blue Tractor Brewing Co,brewpub,Ann Arbor,207 E Washington St,7342224095,,-83.74704578,42.28052759
Boatyard Brewing Co,micro,Kalamazoo,432 E Paterson St,2692260300,http://www.boatyardbrewing.com,-85.578439,42.303203
Brass Ring Brewery,brewpub,Grand Rapids,2404 Eastern Ave SE,6164601587,http://www.brassringbrewing.com,-85.64741488,42.91987422
Bravo! Restaurant & Cafe,brewpub,Portage,5402 Portage Rd,2693447700,http://www.bravokalamazoo.com,-85.56023131,42.23892918
Greenbush Annex,micro,Sawyer,5870 Sawyer Rd,,,-86.59404729,41.88540971
Brew Detroit,micro,Detroit,1401 Abbott St,3139747366,http://www.brewdetroit.com,-83.0619769,42.32770289
Brew Works of Fremont,brewpub,Fremont,5909 S Warner Ave,2313355105,http://www.thecommonsoffremont.com,-85.94003325,43.44380716
Brewery 4 Two 4,micro,Holland,321 Douglas Ave Ste 120,6163777773,http://brewery424.com,,
Brewery Becker,brewpub,Brighton,500 W Main St,8108440225,http://www.brauereibecker.us,-83.785481,42.529522
Brewery Faisan,planning,Detroit,,5867032030,http://www.breweryfaisan.com,,
Brewery Ferment,micro,Traverse City,511 S Union St,2317358113,http://www.breweryferment.com,-85.62353552,44.75888715
Brewery Terra Firma,micro,Traverse City,2959 Hartman Rd,2319291600,http://www.breweryterrafirma.com,-85.63510581,44.71509875
Brewery Vivant,brewpub,Grand Rapids,925 Cherry St SE,6167191604,http://www.breweryvivant.com,-85.64683809,42.95961591
BrickHaven Brewing Company,micro,Grand Ledge,200 E Jefferson St,5179251319,,-84.745273,42.752301
Brickside Brewery,micro,Copper Harbor,64 Gratiot Street,9062894772,http://www.bricksidebrewery.com,,
Brite Eyes Brewing Co,brewpub,Kalamazoo,1156 S Burdick St,2692205001,,-85.582846,42.27977268
Broken Rock Brewery,brewpub,Port Austin,282 Grindstone Rd Bird Creek Farms,2487033114,http://birdcreekfarms.com,,
Brooks Brewing,micro,Shelby Charter Township,52033 Van Dyke,5868844741,http://www.bbrewing.com,,
Brown Iron Brewhouse,brewpub,Washington,57695 Van Dyke Rd,586697330,http://www.browniron.com,-83.03578521,42.71929931
Burt Lake Brewery / Seasons of the North Winery,micro,Alanson,9090 W M-68 Hwy,2315481280,http://www.burtlakebrewery.com,,
"Canton Brew Works, LLC",micro,Canton,8521 N Lilley Rd,7349277081,http://www.cantonbrewworks.com,-83.4586331,42.3224786
Castle Brewing Co,brewpub,Greenville,1310 W Washington,6167126226,http://www.castlebrewingco.com,,
Cedar Springs Brewing Company,brewpub,Cedar Springs,95 N Main # 34,616696,http://www.CSBrew.com,,
Cellar Brewing Co,brewpub,Sparta,133 E Division St,6168830777,http://www.cellarbrewingco.com,-85.70639839,43.16082496
"Cellarmen's Meadery, Microbrewery and Cidery",micro,Hazel Park,24310 John R Rd,5864134206,http://www.cellarmens.com,,
Cheboygan Brewing Co,micro,Cheboygan,101 N Main St,2312683277,http://www.cheboyganbrewing.com,-84.4743633,45.647403
Chelsea Alehouse Brewery,brewpub,Chelsea,420 N Main St Ste 100,7344335500,http://www.chelseaalehouse.com,,
CHILLAX Brewing Company LLC,planning,Milford,,2483883458,,,
City Built Brewing Company,brewpub,Grand Rapids,820 Monroe Ave NW Ste 155,6168055755,http://www.citybuiltbrewing.com,,
CJs Brewing Co,brewpub,Commerce Township,8115 Richardson Rd,2483667979,http://www.cjsbrewingcompany.com,-83.44295839,42.57743694
Clam Lake Beer Co,brewpub,Cadillac,106 S Mitchell St Ste A,2317756150,http://www.clamlakebeerco.com,,
Cognition Brewing Company,micro,Ishpeming,113 E Canda St,9062042724,http://www.cognitionbrewing.com,-87.6681955,46.4916806
Cognito Brewing Company,brewpub,Bangor,142 W Monroe St,9718088863,http://www.cognitobrewingcompany.com,-86.11152208,42.31308099
Cold Iron Brewing,micro,Ironwood,104 S Lowell St,9062857020,http://www.coldironbrewing.com,-90.16984913,46.45390575
ConfluxCity Brewing Company,micro,Portland,110 N Water St,5175269091,http://www.confluxcitybrew.com,-84.90321484,42.87142429
Constantine Brewing Co,brewpub,Constantine,145 S Washington St,2694351230,http://www.constantinebrewingco.com,-85.66859588,41.84164216
Cotton Brewing Co,brewpub,Adrian,626 Oak St,5179026608,http://www.cottonbrewing.com,-84.02463418,41.89136136
Cranker's Brewery,brewpub,Big Rapids,213 S State St,2317961919,,-85.483723,43.688013
Cranker's Restaurant & Brewery,brewpub,Grand Rapids,454 68th St SW,6168271919,http://www.crankersbrewery.com,,
Cranker's Restaurant & Brewery,brewpub,Mount Pleasant,1207 E Pickard St,9897791919,http://www.crankersbrewery.com,-84.76071102,43.61176916
Cravings Bistro & Pub,brewpub,Benton Harbor,1599 Mall Dr Ste B,2699349700,,,
Creston Brewery,brewpub,Grand Rapids,1504 Plainfield Ave NE,6168054523,http://www.crestonbrewery.com,-85.66252661,42.99120192
Dark Horse Brewing Co,micro,Marshall,511 S Kalamazoo Ave,2697819940,http://www.darkhorsebrewery.com,-84.96397652,42.26638824
Dead Bear Brewing Co,brewpub,Grayling,2552 S I 75 Business Loop,9897456289,,,
Dearborn Brewing,micro,Dearborn,21930 Michigan Ave,3139144187,http://www.dearbornbrewing.com,-83.2433835,42.30664415
Detroit Beer Co,brewpub,Detroit,1529 Broadway St Ste 100,3139621529,http://www.detroitbeerco.com,-83.04871786,42.335962
Dimes Brewhouse,micro,Dimondale,145 N Bridge St,5173032067,http://www.dimesbrewhouse.com,-84.6483014,42.64660055
Downey Brewing Company,micro,Dearborn,13121 Prospect St,3132888442,http://www.downeybrewingcompany.com,-83.17350725,42.31625295
Drafting Table Brewing Company,micro,Wixom,49438 Pontiac Trl,2489567279,http://www.draftingtablebeer.com,-83.53663792,42.52440117
Dragonmead Microbrewery,micro,Warren,14600 E 11 Mile Rd,5867769428,,-83.0278041,42.492142
Draught Horse Brewery,brewpub,New Hudson,57721 Grand River Ave,2486173000,http://www.draughthorsebrewery.com,-83.61459,42.5113546
EagleMonk Pub and Brewery,brewpub,Lansing,4906 W Mount Hope Hwy,5177087350,,-84.662048,42.712054
Earthen Ales,micro,Traverse City,1371 Gray Dr Ste 200,2312524270,http://www.earthenales.com,-85.6454249,44.755294
East Channel Brewing Company,micro,Munising,209 Maple St,9063873007,http://www.eastchannelbrewery.com,-86.65452518,46.40934141
East West Brewing Co,brewpub,Grand Rapids,1400 Lake Dr SE,6162885250,http://www.eastwestbrewingcompany.com,-85.634947,42.957318
Eastern Market Brewing Company,micro,Detroit,2515 Riopelle St,,http://www.easternmarket.beer,-83.03876229,42.346625
Eaton Pub & Grille Brewery / Charlotte Brewing Co,brewpub,Charlotte,214 S Cochran Ave,5175438882,http://www.eatonpub.com,-84.83579,42.549391
EB Coffee and Pub,brewpub,Caledonia,8980 N Rodgers Ct SE,6168917700,http://www.ebcoffeepub.com,-85.50839333,42.80145682
Edelbrau Brewing Company,planning,Ann Arbor,,7347075184,http://www.edelbrau.com,,
Elk Brewing Co,brewpub,Comstock Park,400 Dodge Rd NE,6162385227,,,
Elk Brewing Co,brewpub,Grand Rapids,700 Wealthy St SE,6162385227,http://www.elkbrewing.com,-85.6515221,42.9554463
Elk Street Brewery,brewpub,Sandusky,3 S Elk St,8103008049,http://www.elkstreetbrewery.com,-82.82977088,43.42036406
Ellison Brewery & Spirits,micro,East Lansing,4903 Dawn Ave,5172035498,http://www.ellisonbrewing.com,,
Eternity Brewing Co,micro,Howell,4060 E Grand River Ave,5172954904,http://www.eternitybrewing.com,-83.9948055,42.63273017
Exferimentation Brewing Company,micro,Pontiac,7 N Saginaw St,2486481377,http://www.exferimentationbrewing.com,-83.292346,42.6369922
Falling Down Beer Co.,brewpub,Warren,2270 E 10 Mile Rd,,,-82.9805361,42.4787048
Farmington Brewing Company LLC,micro,Farmington,33336 Grand River Ave,2489579543,http://fbcbrewing.com,-83.37603742,42.4649541
Farmington Underground Canning and Kegging,micro,Farmington,,,,,
Fenton Winery & Brewery,brewpub,Fenton,1370 N Long Lake Rd,8103734194,http://www.fentonwinery.com,-83.70470876,42.85155557
Fetch Brewing Co,micro,Whitehall,100 W Colby St,2312157168,http://www.fetchbrewing.com,-86.3494848,43.4097727
Fife Lake Brewery,planning,Fife Lake,,2313926757,,,
Fillmore 13 Brewery,brewpub,Pontiac,7 N Saginaw St,2489773972,http://www.fillmore13brewery.com,-83.292346,42.6369922
Final Gravity Brewing Co,brewpub,Decatur,103 N Phelps St,2694368052,http://www.finalgravitybrew.com,-85.97454749,42.10876694
Final Gravity Brewing Company,planning,Decatur,,,http://www.finalgravitybrew.com,,
Final Gravity Brewing Company,micro,Kalamazoo,246 N Burdick St,,http://www.finalgravitybrew.com,-85.58315888,42.29324471
Fireside Brewing Co.,micro,Holland,430 W 17th St Ste 27,6162943777,,,
Fort Street Brewery,brewpub,Lincoln Park,1660 Fort St,3133899620,http://www.fortstreetbeer.com,-83.17610229,42.25215845
Founders Brewing Co,regional,Detroit,456 Charlotte St,,,-83.0605729,42.34299565
Founders Brewing Co.,regional,Grand Rapids,235 Grandville Ave SW,6167761195,http://www.foundersbrewing.com,-85.6765753,42.9524964
Founders Brewing Production Facility,regional,Grand Rapids,900 Hynes Ave SW,,,-85.67523323,42.94662234
Fountain Hill Brewery,brewpub,Grand Rapids,151 Fountain St NE,6162343690,,-85.664754,42.965489
Four Leaf Brewing,brewpub,Clare,412 N McEwan St,9894246114,http://www.fourleafcraftbeer.com,-84.7683591,43.8256884
Frankenmuth Brewing Co,micro,Frankenmuth,425 S Main St,2489309440,http://www.frankenmuthbrewery.com,-83.73929404,43.32893336
Gallery Brewery,brewpub,Portland,143 Kent St,5175269060,http://www.thegallerybrewery.com,-84.90284271,42.86985871
Ghost Isle Brewing Company,planning,New Buffalo,,2195611219,,,
Glass Creek Winery,micro,Hastings,450 N Whitmore Rd,2699482752,http://www.glasscreekwinery.com,,
Gonzo's BigDogg Brewery,brewpub,Kalamazoo,140 S Westnedge Ave,2693822739,http://www.gonzosbiggdoggbrewing.com,-85.59008261,42.2908852
Grand Armory Brewing Production Facility,micro,Grand Haven,1734 Airpark Dr,3106978958,,-86.19774282,43.03862147
Grand Armory Brewing Co,micro,Grand Haven,17 S 2nd St,6164147822,http://www.grandarmorybrewing.com,-86.2312558,43.06378759
Grand Rapids Brewing Company,brewpub,Grand Rapids,1 Ionia Ave SW Ste 100,6164587000,http://www.grbrewingcompany.com,,
Grand River Brewery,brewpub,Jackson,117 W Louis Glick Hwy,5179622427,http://www.grandrivermarketplace.com,-84.406597,42.249334
Grand River Brewery,planning,Marshall,,,,,
Grande Mere Inn / Cranberry Bog Bar,brewpub,Stevensville,5800 Red Arrow Hwy,2694293591,http://www.grandemereinn.com,-86.5287857,42.01274111
Granite City Food & Brewery,brewpub,Detroit,100 Renaissance Ctr,,,-83.04053931,42.32916295
Granite City Food & Brewery (#28),brewpub,Troy,699 W Big Beaver Rd,2485191040,http://www.gcfb.com,-83.1616138,42.56225169
Granite City Food & Brewery (#32),brewpub,Northville,39603 Traditions Dr,2486623400,http://www.gcfb.net,,
Gravel Bottom Craft Brewery,micro,Ada,452 Ada Dr SE,6169207398,http://www.gravelbottom.com,-85.4857858,42.955144
Great Baraboo Brewing Co,brewpub,Clinton Township,35905 Utica Rd,5867927397,http://www.greatbaraboo.com,-82.96514018,42.56028034
"Great Legs Winery, Brewery, and Distillery",micro,Holland,332 E Lakewood Blvd,6169169729,http://www.greatlegswinery.com,,
Green Bird Cellars and Organic Farms,micro,Northport,9825 E Engles Rd,2313865636,http://www.greenbirdcellars.com,,
Greenbush Brewing Co,micro,Sawyer,5885 Sawyer Rd,2694051076,http://greenbushbrewing.com,-86.59431314,41.88557686
Greyline Brewing,brewpub,Grand Rapids,1727 Alpine Ave NW,6168213786,,-85.68843549,42.99474375
Griffin Claw Brewing Co,micro,Birmingham,575 S Eton St,,http://www.griffinclawbrewingcompany.com,-83.19546429,42.5434572
Grizzly Peak Brewing Co,brewpub,Ann Arbor,120 W Washington St Ste 1,7347417325,http://www.grizzlypeak.net,,
Guardian Brewing Company,planning,Saugatuck,,8125213611,http://www.guardianbrewingco.com,,
Harmony Brewing Co,brewpub,Grand Rapids,1551 Lake Dr SE,6162330063,,-85.63066846,42.95501346
Harmony Brewing Company - Harmony Hall,brewpub,Grand Rapids,401 Stocking Ave NW,,,-85.684118,42.970732
Harpers Restaurant and Brewpub,brewpub,East Lansing,131 Albert Ave,5173334040,http://www.harpersbrewpub.com,-84.48282452,42.73626665
Harsens Island Beer Co.,brewpub,Marysville,808 Gratiot Blvd,,,-82.47149301,42.92247389
HawkPeak Brewing Company DBA Grand Haven Brew House,brewpub,Grand Haven,101 Washington Ave # 2B,6166072060,http://www.grandhavenbrewhouse.com,,
Haymarket Brewery and Taproom,micro,Bridgman,9301 Red Arrow Hwy,3126380707,,-86.55947806,41.94715363
Heavenly Vineyards,micro,Morley,15946 Jefferson Rd,6167102751,http://heavenlyvineyards.weebly.com,-85.463503,43.489827
Hereford and Hops Steakhouse and Brewpub,brewpub,Escanaba,624 Ludington St,9067891945,http://www.herefordandhops.com,-87.0564571,45.7458964
Hideout Brewing Co,brewpub,Grand Rapids,3113 Plaza Dr NE,6163619658,http://www.hideoutbrewing.com,,
Hillsdale Brewing Company,brewpub,Hillsdale,25 Hillsdale St,5172128182,,-84.63154725,41.92470888
HomeGrown Brewing Company,brewpub,Oxford,28 N Washington St,2488918290,http://www.homegrownbrewco.com,-83.26650386,42.82656071
HOMES Brewery,brewpub,Ann Arbor,2321 Jackson Ave,7349546637,http://www.homesbrewery.com,-83.77845211,42.28032635
Hometown Cellars Winery & Brewery,micro,Ithaca,108 E Center St Ste D,9898756010,http://www.hometowncellars.com,,
"Hop Head Farms Brewing, LLC",planning,Baroda,,,,,
Hop Lot Brewing Co.,brewpub,Suttons Bay,658 S West Bay Shore Dr,2318664445,http://www.hoplotbrewing.com,,
Hopcat,brewpub,Grand Rapids,25 Ionia Ave SW Ste 100,6164514677,http://www.hopcat.com,,
"Hops, Bitters, And Mash",planning,Allen Park,,,,,
"Howell's MainStreet Winery, Brewery & Pizzeria",brewpub,Howell,201 W Grand River Ave,5175459463,http://www.howellsmainstreetwinery.com,-83.93080102,42.60768396
Hunter's Ale House,brewpub,Mount Pleasant,4855 E Blue Grass Rd,9897792626,,,
Ironbark Brewery,micro,Jackson,2610 Kibby Rd,5177487988,,-84.43762976,42.2188971
Jaden James Brewery @ The Cascade Winery,brewpub,Grand Rapids,4665 Broadmoor Ave SE Ste 135,6166564665,http://jadenjamesbrewery.com,-85.583194,42.909899
Jamesport Brewing Co,brewpub,Ludington,410 S James St,2318452522,http://www.jamesportbrewingcompany.com,-86.44787302,43.95168567
Jamex Brewing Co,micro,Saint Clair Shores,21721 Harper Ave,5869442030,http://www.jamexbrewing.com,-82.8986171,42.5171113
Jasper Ridge Brewing Co,brewpub,Ishpeming,1075 Country Ln Ste 100,9064856017,http://www.countryvillageresort.com/httpdocs/html/brewery.html,-87.6791485,46.50148242
Jolly Pumpkin Artisan Ales,micro,Dexter,2319 Bishop Cir E,7344264962,http://www.jollypumpkin.com,-83.87683682,42.32487277
Jolly Pumpkin Cafe and Brewery,brewpub,Ann Arbor,311 S Main St,7349132730,http://www.jollypumpkin.com,-83.7484551,42.2791598
Jolly Pumpkin Pizzeria and Brewery,brewpub,Grand Rapids,428 Bridge St NW,6164194676,,-85.6800865,42.970511
"Jolly Pumpkin Restaurant, Brewery & Distillery",micro,Traverse City,13512 Peninsula Dr Old Mission Peninsula,2312234333,http://www.jollypumpkin.com,,
Kelsey Block Brewing Company,brewpub,Three Rivers,41 N Main St,2697183667,http://www.kelseyblock.com,-85.63333961,41.94474661
Keweenaw Brewing Co,micro,Houghton,408 Shelden Ave,9064825596,http://www.keweenawbrewing.com,-88.5687729,47.1219857
Keweenaw Brewing Co - Production Facility,micro,Houghton,408 Shelden Ave,9064821937,http://www.keweenawbrewing.com,-88.5687729,47.1219857
Kickstand Brewing Co,brewpub,Commerce Township,3050 Union Lake Rd Ste 4A,2483015941,http://www.kickstandbrewingco.com,,
Kitzingen Brewery,brewpub,Wyoming,1760 44th St SW Ste 8,6168055077,http://www.Kitzingen-Brewery.com,,
Kuhnhenn Brewing Co,micro,Warren,5919 Chicago Rd,5869798361,http://www.kuhnhenn.beer,-83.023691,42.523306
Kuhnhenn Clinton Township,micro,Clinton Township,36000 Groesbeck Hwy,5862310249,,-82.91782739,42.56179646
Lake Ann Brewing Co,micro,Lake Ann,6535 First St,2316402327,http://www.lakeannbrewing.com,,
Lake Charlevoix Brewing Company,brewpub,Charlevoix,111 Bridge Park Dr,2314373220,http://www.lakecharlevoixbrewing.com,-85.25800112,45.31728307
Lake Superior Brewing Co,brewpub,Grand Marais,N-14283 Lake Avenue,9064942337,http://www.grandmaraismichigan.com/LSBC,,
Lansing Brewing Company,brewpub,Lansing,518 E Shiawassee St,5175996001,,-84.5455093,42.7368424
Latitude 42,brewpub,Portage,7842 Portage Rd Attn: Scott Freitas,2694594242,http://www.latitude42brewingco.com,,
Lehmans Orchard Brewery and Farmhouse,brewpub,Buchanan,204 N Red Bud Trl,2693624063,http://www.lehmansfarmhouse.com,-86.35834031,41.82910596
Les Cheneaux Distillers,brewpub,Cedarville,172 S Meridian St,9064841213,http://www.lescheneauxdistillers.com,-84.36301089,45.99742724
Lexington Brewing Co,brewpub,Lexington,5475 Main St,8103595012,http://www.lexingtonbrewery.com,-82.530867,43.2678755
Liberty Street Brewing Co,micro,Plymouth,149 W Liberty St Ste 1,2487054171,http://www.libertystreetbeer.com,,
Liberty Street Brewing Production Facility,micro,Livonia,11721 Levan Rd,,,-83.40169843,42.36866123
"Library Restaurant, Bar and Brewpub",brewpub,Houghton,62 Isle Royale St,9064875882,http://www.librarybrewpub.com,-88.56701063,47.12215913
Lilys Seafood Restaurant and Brewery,brewpub,Royal Oak,410 S Washington Ave,2485915459,,-83.14668688,42.487039
Lockside Brewery / 1668 Winery,brewpub,Sault Sainte Marie,100 W Portage Ave,9062595035,http://1668winery.com/thebeers/,-84.34705,46.500695
Loggers Brewing Company,micro,Saginaw,1215 S River Rd,9894013085,http://www.loggersbrewingcompany.com,-84.05193542,43.40518225
Looking Glass Brewing Company,brewpub,Dewitt,115 N Bridge St,5175827287,http://www.facebook.com/DeWittBreweryProject/,-84.56922371,42.84243629
Lucky Girl Brewing Co Crossroads,brewpub,Paw Paw,34016 M 43,2696280054,http://luckygirlcrossroads.com,,
Ludington Bay Brewing Co,brewpub,Ludington,515 S James St,2312396690,http://ludingtonbaybrewing.com,-86.44763415,43.95070214
Lumber Barons Brewery,brewpub,Bay City,804 E Midland St,9898910100,http://www.lumberbaronsbrewery.com,,
Lynchpin Beer Company / The Laundry,brewpub,Fenton,115 W Shiawassee Ave,8106298852,http://www.lunchandbeyond.com,-83.70642814,42.792852
Macatawa Ale Company,micro,Holland,102 S River Ave,6168487677,http://www.macatawaalecompany.com,-86.10911659,42.79223968
Mackinaw Brewing Co,brewpub,Traverse City,161 E Front St,2319331100,http://www.mackinawbrewing.com,-85.62124459,44.76426455
Mackinaw Trail Brewing Company / Mackinaw Trail Winery and Brewery,micro,Manistique,103 W Lakeshore Dr,9063412303,http://www.mackinawtrailwinery.com,-86.2503664,45.9535761
McIntosh Orchards,micro,South Haven,6431 107th Ave,7078783734,http://www.mcintoshorchards.com,,
MDs Sports Tavern and Grill,brewpub,Davison,3040 N State Rd,8106536408,http://www.mdsportstavern.com,-83.5173133,43.05021425
MI Brewery / Kayla Rae Cellars,micro,Rockford,31 Courtland St,6169517001,http://www.kaylaraecellars.com,,
Michigan Brewing Works,brewpub,Williamston,3435 Dietz Rd,5176557777,,,
Midland Brewing Co,brewpub,Midland,5011 N Saginaw Road,9892597210,http://www.midlandbrewing.com,-84.2910925,43.6408678
Midtown Brewing Co,micro,Lansing,402 S Washington Sq,5179771349,http://www.midtownbrewingco.com,,
Mishigama Craft Brewing / Ypsi Alehouse,brewpub,Ypsilanti,124 Pearl St Ste 100,7344871555,http://www.ypsialehouse.com,,
Mitten Brewing Co - Northport,brewpub,Northport,112 W Nagonaba St,6163182448,,-85.61801909,45.129833
Motor City Brewing Works,brewpub,Detroit,470 W Canfield St,3138322700,http://www.motorcitybeer.com,-83.06603733,42.3518156
Motor City Brewing Works Warehouse,micro,Detroit,441 W Canfield St,,,-83.06474893,42.35151997
Mountain Town Brewing Co,micro,Mt Pleasant,614 W Pickard St,9894004666,http://www.mountaintownbrew.com,-84.78689552,43.61180948
Mountain Town Station Restaurant & Brew Pub,brewpub,Mt Pleasant,506 W Broadway St,9894004666,http://www.mountaintownbrew.com,-84.7822205,43.604568
New Holland Brewing,planning,Battle Creek,,,,,
New Holland Brewing Co,regional,Holland,66 E 8th St,6163556422,http://www.newhollandbrew.com,-86.10411872,42.79010355
New Holland Brewing Co - Production Facility,regional,Holland,690 Commerce Ct,6165102259,,,
New Union Brewing,micro,Lowell,400 W Main St,6163197171,http://www.newunionbrewery.com,-85.355545,42.931398
Newaygo Brewing Co,brewpub,Newaygo,19 State Rd,2314526551,http://www.newaygobrewing.com,-85.79585808,43.42386642
North Center Brewing Co.,brewpub,Northville,410 N Center St,2484447967,http://www.northcenterbrewing.com,-83.48311135,42.43412107
North Channel Brewing Co.,brewpub,Manistee,86 Washington St,2312991020,http://www.NorthChannelBrewing.com,-86.32379888,44.24929388
North Peak Brewing Co,brewpub,Traverse City,400 W Front St,2319417325,http://www.northpeak.net,-85.6285431,44.7643155
North Pier Brewing,micro,Benton Harbor,670 N Shore Dr,2697577163,http://www.northpierbrewing.com,-86.45499315,42.12454349
Northern Oak Brewery,brewpub,Holly,806 N Saginaw St,2486347515,http://www.northernoakbrewery.com,-83.62737964,42.80026273
Northville Winery and Brewery,micro,Northville,630 Old Baseline Rd,2483206507,,,
Odd Side Ales,micro,Grand Haven,41 Washington Ave Ste 160,6169357326,http://www.oddsideales.com,,
Odd Side Ales Production Facility,micro,Grand Haven,1810 Industrial Dr,,,-86.1983973,43.03124408
Old Boys Brewhouse,brewpub,Spring Lake,971 W Savidge St,6168509950,http://www.oldboysbrewhouse.com,-86.21215194,43.07642829
Old Detroit Brewing Co,planning,Bloomfield Hills,,,,,
Old Mill Brewpub and Grill,brewpub,Plainwell,717 E Bridge St,2692046601,http://www.oldmillbrew.com,-85.63224537,42.442939
Old Nation Brewing Company,micro,Williamston,1500 W. Grand River Ave,5176551301,http://www.oldnationbrewing.com,-84.2899561,42.6878555
Olde Peninsula Brewpub and Restaurant,brewpub,Kalamazoo,200 E Michigan Ave,2693432739,http://www.oldepeninsula.com,-85.581578,42.2916484
One Well Brewing,planning,Kalamazoo,,2694599240,,,
One Well Brewing,brewpub,Kalamazoo,4213 Portage St,2694599240,http://www.onewellbrewing.com,-85.5591755,42.2485915
OpenRoad Brewery,brewpub,Wayland,128 S Main St,6162937855,http://www.openroadbrewing.com,-85.64331774,42.67311202
Oracle Brewing Company,micro,Saginaw,122 N Michigan Ave,9894017446,http://www.oraclebeer.com,-83.96401351,43.417723
Ore Dock Brewing Co,micro,Marquette,114 W Spring St,9068675309,http://www.oredockbrewingcompany.com,-87.39388593,46.54189135
Original Gravity Brewing Co,brewpub,Milan,440 County St,7344397490,http://www.ogbrewing.com,-83.67523597,42.083974
Osgood Brewing,brewpub,Grandville,4051 Chicago Dr SW,,http://www.osgoodbrewing.com,-85.76493039,42.90907804
Our Brewing Co,micro,Holland,76 E 8th St,6169948417,http://www.ourbrewingcompany.com,-86.1037537,42.7901898
Ozone's Brewhouse,micro,Lansing,305 Beaver St,5179992739,http://www.ozonesbrewhouse.com,-84.54860983,42.7505921
Paddle Hard Brewing,micro,Grayling,118 Michigan Ave,9897456388,http://paddlehardbrewing.com,-84.709584,44.66521
Paddle Hard Brewing,brewpub,Grayling,227 E Michigan Ave,9897456388,,-84.71675164,44.6600473
Paper City Development LLC,planning,Vicksburg,,6049961400,http://papercitymillworks.com,,
Parkers Hilltop Brewery,brewpub,Clarkston,6110 Dixie Hwy,2483838444,http://www.hilltopbrew.com,-83.4149011,42.7174413
Paw Paw Brewing Company,brewpub,Paw Paw,929 E Michigan Ave,2694150145,http://pawpawbrewery.com,-85.87748984,42.2192304
Paw Paw Brewing Company LLC,micro,PAW PAW,780 S Gremps street,2695015241,http://www.pawpawbrewing.com,-85.89437423,42.2131394
Paw Paw Brewing Company Production Facility,micro,Paw Paw,780 S Gremps St,,,-85.89437423,42.2131394
Perrin Brewing Company,regional,Comstock Park,5910 Comstock Park Dr NW,6165511957,http://www.perrinbrewing.com,,
Petoskey Brewing,micro,Petoskey,1844 M 119 Harbor-Petoskey Rd,2317532057,http://www.petoskeybrewing.com,,
Pigeon Hill Brewery Production Facility,planning,Muskegon,,,,,
Pigeon Hill Brewing Co,micro,Muskegon,500 W Western Ave Ste 100,2313755184,http://www.pigeonhillbrew.com,,
Pike 51 Brewing,brewpub,Hudsonville,3768 Chicago Dr,6166624589,http://www.hudsonvillewinery.com,-85.87944718,42.8606644
Pileated Brewing Co,micro,Ann Arbor,2290 South Industrial Highway,7343696290,http://www.pileatedbrewing.com,-83.73385304,42.2528625
Pointless Brewery,micro,Ann Arbor,3014 Packard St,9894554484,http://www.pointlessbrew.com,-83.7297662,42.260633
Poison Frog Brewing Company,brewpub,Jackson,1908 Horton Rd,5177485997,,-84.4374522,42.20141178
Presidential Brewing Co.,planning,Portage,,2694689765,http://www.presidentialbrewing.com,,
Railtown Brewing Co,micro,Dutton,3595 68th St SE,6168812364,http://www.railtownbrewing.com,-85.57833065,42.84118888
Rare Bird Brewpub,brewpub,Traverse City,229 Lake Ave,2319432053,http://rarebirdbrewpub.com,-85.61932337,44.75978039
Red Jacket Brewing at Michigan House Cafe,brewpub,Calumet,300 6th St,9063371910,http://www.michiganhousecafe.com/brewpub.html,-88.4535254,47.2464521
Redline Brewing Company,micro,Burton,5470 Lapeer Rd,8102592009,http://redlinebrewingcompany.com,-83.59795244,43.01100775
Redwood Brewing Co,brewpub,Flint,5304 Gateway Ctr,8102338000,http://www.redwoodbrewingco.com,,
Reed City Brewing Company,brewpub,Reed City,141 W Upton Ave,2314654222,,-85.51071976,43.875879
Right Brain Brewery,micro,Traverse City,225 E Sixteenth St Ste A,2319441239,http://www.rightbrainbrewery.com,,
River Rouge Brewing Company,micro,Royal Oak,406 E 4th St,2488020555,http://www.riverrougebrew.com,-83.14059587,42.48726531
River's Edge Brewing Co,brewpub,Milford,125 S Main St Ste 400,2486851625,http://www.riversedgebrew.com,,
Roak Brewing Co.,micro,Royal Oak,330 E Lincoln Ave,2482688780,http://www.roakbrewing.com,-83.14209914,42.48342093
Rochester Mills Beer Co,brewpub,Rochester,400 Water St Ste 101,2486505080,http://www.beercos.com,,
Rochester Mills Production Brewery,micro,Auburn Hills,3275 Lapeer W Rd,2483773130,http://www.beercos.com,,
Rockford Brewing Company,brewpub,Rockford,12 E Bridge St,6169514677,http://www.RockfordBrewing.com,,
Rolling Oak Brewing Co,micro,Grayling,509 Norway St,9897456280,http://rollingoakbrewing.com,-84.716671,44.661765
Round Barn Brewery / Round Barn Winery,micro,Baroda,10983 Hills Rd,8007169463,http://www.roundbarnwinery.com,-86.479395,41.950161
Round Barn Brewery & Public House,micro,Baroda,9151 First St,2693267059,http://www.roundbarnbrewery.com,,
Royal Oak Brewery,brewpub,Royal Oak,215 E 4th St,2485441141,http://www.royaloakbrewery.com,-83.14271229,42.48739557
Rudbeckia Farm,micro,Petoskey,3379 Lake Grove Rd,2316224173,http://www.rudbeckiafarm.com,,
Rupert's Brew House,micro,Kalamazoo,773 W Michigan Ave,2693379911,http://www.rupertsbrewhouse.com,-85.5941774,42.29072325
Rustic Leaf Brewing Company,micro,Waterford,7200 Highland Rd,2485999933,http://www.rusticleafbrewingcompany.com,-83.4048664,42.659901
Salt Springs Brewery,brewpub,Saline,117 S Ann Arbor St,7342959191,http://wwww.saltpsringsbrewery.com,-83.78105412,42.16646594
Sanctuary Spirits,micro,Grand Ledge,902 E Saginaw Hwy,5179251930,http://www.sanctuaryspirits.com,-84.73453638,42.7407777
Sandhill Crane Vineyards,micro,Jackson,4724 Walz Rd,5177640679,http://www.sandhillcranevineyards.com,,
Saugatuck Brewing Co,micro,Douglas,2948 Blue Star Hwy,2698577222,http://www.saugatuckbrewing.com,-86.2120077,42.62989386
Schmohz Brewery,micro,Grand Rapids,2600 Patterson Ave SE Ste 1,6169490860,http://www.schmohz.com,,
Sherwood Brewing Co,brewpub,Shelby Township,45689 Hayes Rd,5865329669,http://www.sherwoodbrewing.com,-82.97361414,42.63202014
Shipwreck Brewing Company,brewpub,Saint Clair Shores,24409 Jefferson Ave,5869442266,http://www.shipwreckbrewingcompany.com,-82.88877859,42.47122231
Short's Brewing Co,brewpub,Bellaire,121 N Bridge St,2315336622,http://www.shortsbrewing.com,-85.21012429,44.975604
Short's Brewing Co - Production Facility,regional,Elk Rapids,211 Industrial Park Dr,2314982300,http://www.shortsbrewing.com,,
Silver Harbor Brewing Company,brewpub,Saint Joseph,721 Pleasant St,2692817100,http://silverharborbrewing.com,-86.48027459,42.10893033
Sister Lakes Brewing Company,brewpub,Dowagiac,92500 County Road 690,2693325135,http://www.sisterlakesbrewing.com,,
Snowbelt Brewing Company,brewpub,Gaylord,132 W Main St Unit 1,9894487077,,,
Soo Brewing Company,micro,Sault Sainte Marie,223 W Portage Ave,9066324400,http://www.soobrew.com,-84.3482782,46.50089794
South Haven Brewpub,brewpub,South Haven,515 Williams St Ste 23,2697677105,http://www.southhavenbrewpub.com,,
Spartan Brewpub,brewpub,Mason,3056 Okemos Rd,5175075098,http://spartanbrewpub.com/,-84.43276467,42.67095756
Speciation Artisan Ales,micro,Comstock Park,3720 West River Dr NE Ste 201,6166666783,http://speciationartisanales.com,,
Sports Brewpub,brewpub,Wyandotte,166 Maple St,7342855060,,-83.15132628,42.20229805
St Ambrose Cellars,micro,Beulah,841 S Pioneer Rd,2313834262,http://www.stambrose-mead-wine.com,,
Starving Artist Brewing,micro,Ludington,634 S Stiles Rd,2317941399,http://starvingartist.beer,,
Stiggs Brewery & Kitchen,brewpub,Boyne City,112 S Park St,2314976100,http://www.stiggsbrewingcompany.com,,
Stony Lake Brewing Company,micro,Saline,447 E Michigan Ave,7343167919,http://www.stonylakebrewing.com,-83.7735354,42.17041729
Stormcloud Brewing Company,brewpub,Frankfort,303 Main St,2316519080,http://www.stormcloudbrewing.com,-86.24100175,44.63290605
Stormcloud Brewing Company Production Facility,micro,Frankfort,366 Parkview Ln,,,-86.2218117,44.6373933
Strand Brewery,brewpub,Dowagiac,93415 County Road 690,2694247500,http://www.strandbrewery.com,,
Sugarfoot Saloon,brewpub,Cedar,4997 S Good Harbor Trl,2312286166,,-85.79625698,44.90785082
Superior Coast Brewery / Karls Cuisine Winery and Brewery,brewpub,Sault Sainte Marie,447 W Portage Ave,9062531900,http://www.karlscuisine.com,-84.35344671,46.50179396
Tahquamenon Falls Brewery and Pub,brewpub,Paradise,M-123 Upper Falls Dr,9064923300,http://www.tahquamenonfallsbrewery.com,,
Tapistry Brewing Company,micro,Bridgman,4236 Lake St,2692667349,http://www.tapistrybrewing.com,-86.5561575,41.9427559
TBD,micro,Armada,17985 Armada Center Rd,5869897454,http://www.blakeshardcider.com,-82.95124856,42.84942455
Tecumseh Brewing Company,brewpub,Tecumseh,128 W Chicago Blvd,5178151726,http://www.tecumsehbrewingco.com,-83.946191,42.004052
Tenacity Brewing,micro,Flint,119 N Grand Traverse St,8103396676,http://www.tenacitybrewing.com,-83.69663179,43.01522788
Territorial Brewing Company,brewpub,Springfield,256 Helmer Rd N,2692821694,http://www.territorialbrewing.com,-85.23565712,42.3151618
Territorial Brewing Company Production Facility,micro,Springfield,2815 6th Ave,2694410030,,-85.22954317,42.31466956
Texas Corners Brewing Company,brewpub,Kalamazoo,6970 Texas Dr,2698707724,http://www.texascornersbrewing.com,-85.6486336,42.2300087
The Boathouse Beer Co and Boozery,brewpub,Tawas City,450 W Lake St,9899845233,http://www.boathousebeerco.com,-83.5169024,44.26826378
The Distant Whistle Brewhouse,micro,Vicksburg,118 S Main St,2693707549,http://www.distantwhistle.com,-85.53248776,42.11909502
The Filling Station Microbrewery,micro,Traverse City,642 Railroad Pl,2319468168,http://www.thefillingstationmicrobrewery.com,-85.609476,44.7580963
The Highway Brewing Co.,brewpub,West Branch,209 W Houghton Ave,9897090716,http://www.highwaybrewingco.com,-84.23751651,44.27635208
The Knickerbocker/ New Holland Brewing,brewpub,Grand Rapids,417 Bridge St NW,6163455642,,-85.68044312,42.97068214
The Livery,brewpub,Benton Harbor,190 5th St,2699258760,http://www.liverybrew.com,-86.45330019,42.11813538
The Maple Grille LLC,brewpub,Hemlock,13105 Gratiot Rd,,,-84.1741049,43.4157758
The Mitten Brewing Co,brewpub,Grand Rapids,527 Leonard St NW,6166085612,http://www.mittenbrewing.com,-85.68101,42.98507733
The Mitten Brewing Company - Saugatuck,brewpub,Saugatuck,329 Water St,6166085612,,-86.20524129,42.65689129
The Mitten Brewing Company Production Facility,micro,Grand Rapids,540 Leonard St NW,,,-85.68100276,42.98491266
The Parlor,brewpub,Traverse City,205 Lake Ave,2319414422,http://www.bigtoebrewery.com,-85.6204308,44.7601402
The Red Baron,brewpub,Burton,2495 S Center Rd,8107441310,http://www.baronburger.com,-83.63373728,42.9924788
"The Sanford Beverage Company, Inc. D.B.A. Steele Street Brewing",brewpub,Ionia,300 S Steele St,6165234003,http://www.steelestreetbrewing.com,-85.06766243,42.98135831
Third Monk Brewing Co,micro,South Lyon,228 S Lafayette St,2482786366,http://www.thirdmonkbrewingco.com,-83.65116644,42.45482138
Third Nature Brewing Co.,planning,Rockford,,,,,
Thornapple Brewing Company,micro,Grand rapids,6262 28th st SE,6164226209,http://Www.thornapplebrewing.com,-85.6506666,42.9128114
Three Blondes Brewing,brewpub,South Haven,1875 Phoenix St,,http://www.threeblondesbrewing.com,-86.2642391,42.4033183
Tibbs Brewing Co,brewpub,Kalamazoo,402 S Burdick St,8777627397,,-85.58320831,42.28859949
Tilted Axis Brewing Company,brewpub,Lapeer,303 W Nepessing St,8109694477,http://www.tiltedaxis.beer,-83.31247549,43.05377576
Tootsie's Brewery / Lone Oak Vineyard,brewpub,Grass Lake,8400 Ann Arbor Rd,5175228167,http://www.tootsiesbrewery.com,,
Townies Brewery,brewpub,Ann Arbor,2350 W Liberty Rd,,,-83.7891745,42.2730356
Traffic Jam and Snug,brewpub,Detroit,4268 2nd Ave,3138319470,http://www.trafficjamdetroit.com,-83.086546,42.384371
Trail Point Brewing Co.,micro,Allendale,6035 Lake Michigan Dr,6168952739,http://www.trailpointbrewing.com,-85.93541536,42.97207782
Transient Artisan Ales,micro,Bridgman,4229 Lake St,,,-86.55570937,41.94299804
Tri City Brewing Co,micro,Bay City,4170 Shrestha Dr,9896861340,http://www.tricitybrewing.com,,
Tripelroot,brewpub,Zeeland,146 E Main Ave,6169530050,http://www.tripelroot.com,-86.01463482,42.81211765
Tripelroot Production Facility,micro,Holland,2262 112th Ave,,,-86.0580859,42.802587
Tujax Tavern,brewpub,Delton,103 S Grove St,2696238310,,-85.407991,42.496258
Tunnel Vision Brewery,brewpub,Harbor Springs,5699 S Lake Shore Dr,2315263276,http://www.pondhill.com,-85.065042,45.471828
TwoGuys Brewing,brewpub,Wyoming,2356 Porter St SW,6165529690,http://www.twoguysbrewing.beer,-85.72355013,42.92114925
UBrew Nanobrewery,micro,Traverse City,3054 Cass Rd Unit F,2319432016,http://www.ubrewtc.com,,
Unruly Brewing Company,micro,Muskegon,360 W Western Ave,2312881068,http://www.unrulybrewing.com,-86.25381541,43.23504367
Upper Hand Brewery,micro,Escanaba,3525 Airport Rd,2693822338,http://www.upperhandbrewery.com,-87.097528,45.7164279
Urbanrest Brewing Company,micro,Ferndale,2615 Wolcott St,,http://www.urbanrest.com,-83.1274188,42.4679929
Vander Mill,brewpub,Grand Rapids,505 Ball Ave NE,6162598828,http://www.vandermill.com,-85.6305954,42.9712724
VanMax Brewing Company LLC,micro,Decatur,103 N Phelps St,2692171720,http://www.vanmaxbrewing.com,-85.97454749,42.10876694
Vierling Restaurant & Marquette Harbor Brewery,brewpub,Marquette,119 S Front St,9062283533,http://www.thevierling.com,-87.3928955,46.5425586
Vivio's Food,planning,Detroit,,3133931711,http://www.viviosdetroit.com,,
Walldorff Brewpub & Bistro,brewpub,Hastings,105 E State St,2699454400,http://www.walldorffbrewpub.com,-85.284584,42.6487487
WAR WATER BREWERY,brewpub,Saint Clair,201 N Riverside Ave Ste C1-11,8102893921,http://www.warwaterbrewery.com,,
Watermark Brewing Company,micro,Stevensville,5781 Saint Joseph Ave,2692810872,http://www.watermarkbrewing.com,-86.51963025,42.01286668
Waypost Brewing Co.,planning,Fennville,,6169162362,http://waypostbeer.com,,
Whiskey Point Brewing Company,planning,Beaver Island,,2313737842,http://www.whiskeypointbrewing.com,,
White Flame Brewing Co,brewpub,Hudsonville,5234 36th Ave,6162095098,http://www.whiteflamebrewing.com,,
Wiltse's Brew Pub and Family Restaurant,brewpub,Oscoda,5606 F 41,9897392231,http://www.wiltsebrewpub.com,,
Witch's Hat Brewing,micro,South Lyon,601 S Lafayette St,2484862595,http://www.witchshatbrewing.com,-83.65099308,42.45542522
Wolverine State Brewing Co,brewpub,Ann Arbor,2019 W Stadium Blvd # 103,7343692990,http://www.wolverinebeer.com,-83.7745473,42.2694316
Woodward Avenue Brewers,brewpub,Ferndale,22646 Woodward Ave,2485463696,http://www.thewabsite.com,-83.13333109,42.4596444
Workshop Brewing Co,brewpub,Traverse City,221 Garland St Ste A,12314218966,http://www.traversecityworkshop.com,,
